STARLINK-1235           
1 45232U 20012BG  20362.38908906 -.00000752  00000-0 -31573-4 0  9996
2 45232  53.0558 248.3941 0002039  34.4791 325.6330 15.06390694 49285
STARLINK-1238           
1 45233U 20012BH  20362.76692856  .00009156  00000-0  63453-3 0  9999
2 45233  53.0071 266.7111 0000921 331.8217  28.2721 15.06296447 48116
STARLINK-1243           
1 45234U 20012BJ  20362.27407570 -.00000863  00000-0 -40049-4 0  9998
2 45234  52.9998 288.9351 0001614  68.4737 291.6423 15.05579493 48675
STARLINK-1246           
1 45235U 20012BK  20362.79084901  .00034797  00000-0  23554-2 0  9996
2 45235  53.0020 286.6051 0001534  62.6261 297.4883 15.06210224 47875
STARLINK-1247           
1 45236U 20012BL  20362.77242083  .00000647  00000-0  62351-4 0  9999
2 45236  53.0562 246.6722 0001955  73.3338 286.7865 15.06402267 48400
STARLINK-1270           
1 45237U 20012BM  20362.39646879 -.00001066  00000-0 -52638-4 0  9994
2 45237  53.0590 248.3594 0002337  77.2639 282.8611 15.06387990 49288
STARLINK-1279           
1 45360U 20019A   20362.73885826  .00000845  00000-0  77156-4 0  9997
2 45360  53.0004  16.8589 0001446  68.5568 291.5574 15.05581729 44073
STARLINK-1301           
1 45361U 20019B   20362.47570493 -.00001051  00000-0 -51679-4 0  9994
2 45361  53.0574  28.0110 0001075  81.6737 278.4374 15.06390591 43902
STARLINK-1306           
1 45362U 20019C   20362.84067807  .00000813  00000-0  74916-4 0  9998
2 45362  53.0013  46.3920 0001194 105.0644 255.0477 15.05587700 43682
STARLINK-1313           
1 45364U 20019E   20362.73554284 -.00000648  00000-0 -25299-4 0  9996
2 45364  53.0017  16.8703 0001321  87.4240 272.6899 15.05581958 44072
STARLINK-1317           
1 45365U 20019F   20362.46854513  .00000644  00000-0  63350-4 0  9999
2 45365  53.0031  28.0683 0001271  75.8551 284.2578 15.05584299 43894
STARLINK-1262           
1 45366U 20019G   20362.82740640 -.00000631  00000-0 -24158-4 0  9996
2 45366  53.0019  46.4558 0001074 104.6532 255.4575 15.05584348 43686
STARLINK-1273           
1 45367U 20019H   20362.64818062 -.00000989  00000-0 -48729-4 0  9997
2 45367  53.0018  47.2550 0001218 104.5444 255.5679 15.05581058 43656
STARLINK-1276           
1 45368U 20019J   20362.82076979  .00000807  00000-0  74538-4 0  9995
2 45368  53.0034  46.4845 0001210  78.4126 281.6997 15.05580042 43689
STARLINK-1277           
1 45369U 20019K   20362.48552955  .00000498  00000-0  53340-4 0  9995
2 45369  53.0030  47.9899 0001061  80.5666 279.5442 15.05586821 43635
STARLINK-1281           
1 45370U 20019L   20362.40919449 -.00000528  00000-0 -17046-4 0  9993
2 45370  53.0027  48.3314 0001134  83.1489 276.9628 15.05585213 43623
STARLINK-1287           
1 45371U 20019M   20362.83736941 -.00000614  00000-0 -22943-4 0  9993
2 45371  53.0021  46.4073 0001311  87.5417 272.5721 15.05582580 43681
STARLINK-1288           
1 45372U 20019N   20362.45232885  .00001930  00000-0  15155-3 0  9996
2 45372  53.0031  48.1378 0001166  98.8916 261.2204 15.05595457 43629
STARLINK-1295           
1 45373U 20019P   20362.83404535  .00000769  00000-0  71950-4 0  9997
2 45373  53.0024  46.4226 0001333  89.3713 270.7428 15.05579675 43684
STARLINK-1300           
1 45374U 20019Q   20362.43243493 -.00001069  00000-0 -54243-4 0  9990
2 45374  53.0025  48.2285 0001105  92.4714 267.6400 15.05579604 43625
STARLINK-1302           
1 45375U 20019R   20362.44571408 -.00000763  00000-0 -33197-4 0  9997
2 45375  53.0022  48.1683 0001012 104.2560 255.8540 15.05576734 43627
STARLINK-1304           
1 45376U 20019S   20362.39593063  .00001339  00000-0  11108-3 0  9998
2 45376  53.0036  48.3927 0001240  83.0773 277.0356 15.05578844 43613
STARLINK-1305           
1 45377U 20019T   20362.82409285 -.00000808  00000-0 -36298-4 0  9999
2 45377  53.0039  46.4684 0001263  83.4850 276.6282 15.05579925 43682
STARLINK-1310           
1 45378U 20019U   20362.41251315  .00000599  00000-0  60255-4 0  9999
2 45378  53.0033  48.3168 0001044  83.4233 276.6874 15.05579020 43624
STARLINK-1319           
1 45379U 20019V   20362.61499440  .00000672  00000-0  65245-4 0  9991
2 45379  53.0030  47.4086 0000949 118.5097 241.5987 15.05577118 43657
STARLINK-1207           
1 45380U 20019W   20362.42779292  .00000966  00000-0  83753-4 0  9998
2 45380  53.0554  28.2233 0001231  77.3001 282.8126 15.06398788 43897
STARLINK-1258           
1 45381U 20019X   20362.43885020 -.00001082  00000-0 -53774-4 0  9999
2 45381  53.0556  28.1744 0001201  75.4294 284.6828 15.06391933 43890
STARLINK-1264           
1 45382U 20019Y   20362.81480259  .00001944  00000-0  14935-3 0  9997
2 45382  53.0578  26.4910 0001133  90.3646 269.7473 15.06406854 43778
STARLINK-1266           
1 45383U 20019Z   20362.43147629  .00000639  00000-0  61790-4 0  9999
2 45383  53.0572  28.2093 0000917  97.9010 262.2083 15.06398233 43891
STARLINK-1267           
1 45384U 20019AA  20362.55310731 -.00000888  00000-0 -40767-4 0  9998
2 45384  53.0582  27.6617 0001233  82.0932 278.0197 15.06397074 43925
STARLINK-1272           
1 45386U 20019AC  20362.42410205 -.00000843  00000-0 -37694-4 0  9999
2 45386  53.0568  28.2415 0000928  90.2411 269.8684 15.06393800 43895
STARLINK-1274           
1 45387U 20019AD  20362.84428753 -.00006998  00000-0 -45110-3 0  9991
2 45387  53.0513  26.3396 0001387  80.6457 279.4689 15.06423354 43931
STARLINK-1280           
1 45388U 20019AE  20362.39924431  .00001288  00000-0  10755-3 0  9998
2 45388  53.0027  48.3780 0001359 112.6790 247.4342 15.05581702 43604
STARLINK-1283           
1 45389U 20019AF  20362.79268771 -.00013893  00000-0 -91421-3 0  9997
2 45389  53.0519  26.5862 0002283  80.8041 279.3207 15.06452599 43956
STARLINK-1284           
1 45390U 20019AG  20362.43515809  .00001066  00000-0  90425-4 0  9998
2 45390  53.0579  28.1891 0001142  82.3330 277.7789 15.06402010 43898
STARLINK-1289           
1 45391U 20019AH  20362.44990315  .00000357  00000-0  42871-4 0  9993
2 45391  53.0551  28.1217 0001497  70.8131 289.3020 15.06395695 43623
STARLINK-1290           
1 45392U 20019AJ  20362.39326176  .00002950  00000-0  21859-3 0  9999
2 45392  52.9944  28.2020 0001370 129.3977 230.7132 15.06100165 43618
STARLINK-1291           
1 45393U 20019AK  20362.81112761 -.00001268  00000-0 -66281-4 0  9992
2 45393  53.0563  26.5062 0001068  79.8416 280.2693 15.06390703 43718
STARLINK-1292           
1 45394U 20019AL  20362.44253408 -.00000965  00000-0 -45932-4 0  9999
2 45394  53.0555  28.1583 0001241  86.0364 274.0767 15.06393688 43630
STARLINK-1297           
1 45395U 20019AM  20362.47201000  .00000718  00000-0  67049-4 0  9991
2 45395  53.0554  28.0285 0001080  93.8926 266.2186 15.06402780 43080
STARLINK-1303           
1 45396U 20019AN  20362.45358856 -.00004202  00000-0 -26335-3 0  9998
2 45396  53.0552  28.1092 0001156  79.0575 281.0544 15.06403767 43614
STARLINK-1307           
1 45397U 20019AP  20362.46464910 -.00001045  00000-0 -51299-4 0  9999
2 45397  53.0571  28.0647 0000995  86.3638 273.7465 15.06388559 43725
STARLINK-1312           
1 45398U 20019AQ  20362.78899669 -.00000466  00000-0 -12361-4 0  9991
2 45398  53.0540  26.6028 0001540  81.0908 279.0255 15.06408008 43704
STARLINK-1255           
1 45399U 20019AR  20362.48660839 -.00000005  00000-0  18826-4 0  9994
2 45399  53.0010  17.9870 0001113  74.5253 285.5858 15.05581374 43855
STARLINK-1213           
1 45400U 20019AS  20362.76542095  .00000852  00000-0  77678-4 0  9990
2 45400  53.0024  16.7293 0001407  73.7905 286.3237 15.05575153 43825
STARLINK-1256           
1 45401U 20019AT  20362.43020408  .00000783  00000-0  72894-4 0  9992
2 45401  53.0031  18.2368 0001411  65.3086 294.8048 15.05575564 43848
STARLINK-1257           
1 45402U 20019AU  20362.75877664  .00000678  00000-0  65726-4 0  9991
2 45402  53.0008  16.7660 0001327  69.7552 290.3579 15.05580652 43892
STARLINK-1259           
1 45403U 20019AV  20362.44014251 -.00000958  00000-0 -46611-4 0  9998
2 45403  53.0009  18.1938 0001058  77.8040 282.3066 15.05576873 43848
STARLINK-1260           
1 45404U 20019AW  20362.78533149 -.00001093  00000-0 -55887-4 0  9994
2 45404  53.0023  16.6407 0001114  72.3088 287.8022 15.05579555 43802
STARLINK-1263           
1 45405U 20019AX  20362.43682160 -.00000717  00000-0 -30049-4 0  9990
2 45405  53.0014  18.2106 0001137  98.0250 262.0867 15.05579434 43750
STARLINK-1265           
1 45406U 20019AY  20362.44678006 -.00001048  00000-0 -52752-4 0  9999
2 45406  53.0022  18.1584 0001380  64.6558 295.4572 15.05579478 43750
STARLINK-1275           
1 45407U 20019AZ  20362.46004951  .00000669  00000-0  65064-4 0  9990
2 45407  53.0018  18.1014 0001551  63.5236 296.5911 15.05582742 43752
STARLINK-1278           
1 45408U 20019BA  20362.60171102 -.00001053  00000-0 -53117-4 0  9996
2 45408  53.0019  47.4680 0001323  94.6418 265.4721 15.05578735 43360
STARLINK-1282           
1 45409U 20019BB  20362.40030116  .00000684  00000-0  66061-4 0  9993
2 45409  53.0024  18.3706 0000966  87.1591 272.9507 15.05589021 43752
STARLINK-1285           
1 45410U 20019BC  20362.44346416 -.00000155  00000-0  85452-5 0  9992
2 45410  52.9999  18.1741 0001055  73.7599 286.3505 15.05577942 43755
STARLINK-1293           
1 45411U 20019BD  20362.47996201  .00000977  00000-0  86196-4 0  9995
2 45411  53.0034  18.0147 0001000  89.3944 270.7159 15.05589061 43784
STARLINK-1296           
1 45412U 20019BE  20362.45009806 -.00000910  00000-0 -43337-4 0  9999
2 45412  53.0034  18.1495 0001007  87.2011 272.9092 15.05580171 43751
STARLINK-1298           
1 45413U 20019BF  20362.74217610  .00000807  00000-0  74547-4 0  9996
2 45413  53.0031  16.8357 0001062  90.8471 269.2639 15.05578226 43891
STARLINK-1309           
1 45414U 20019BG  20362.39699348 -.00000703  00000-0 -29061-4 0  9998
2 45414  53.0034  18.3865 0001699  59.5562 300.5594 15.05579813 43730
STARLINK-1316           
1 45415U 20019BH  20362.75545177  .00000857  00000-0  77948-4 0  9994
2 45415  53.0017  16.7772 0001097  73.5514 286.5595 15.05585990 43823
